{
    "links": {
        "self": "http://www.neowsapp.com/rest/v1/neo/3759278?api_key=iIulBulltgU6a56xZRHN4H3l9WmuAYTsLGpBGhQ2"
    },
    "id": "3759278",
    "neo_reference_id": "3759278",
    "name": "(2016 RV19)",
    "designation": "2016 RV19",
    "nasa_jpl_url": "http://ssd.jpl.nasa.gov/sbdb.cgi?sstr=3759278",
    "absolute_magnitude_h": 25.3,
    "estimated_diameter": {
        "kilometers": {
            "estimated_diameter_min": 0.0231502122,
            "estimated_diameter_max": 0.0517654482
        },
        "meters": {
            "estimated_diameter_min": 23.150212221,
            "estimated_diameter_max": 51.7654482198
        },
        "miles": {
            "estimated_diameter_min": 0.0143848705,
            "estimated_diameter_max": 0.0321655483
        },
        "feet": {
            "estimated_diameter_min": 75.9521422633,
            "estimated_diameter_max": 169.8341531374
        }
    },
    "is_potentially_hazardous_asteroid": false,
    "close_approach_data": [
        {
            "close_approach_date": "2016-08-31",
            "close_approach_date_full": "2016-Aug-31 12:54",
            "epoch_date_close_approach": 1472648040000,
            "relative_velocity": {
                "kilometers_per_second": "6.5959262528",
                "kilometers_per_hour": "23745.3345101998",
                "miles_per_hour": "14754.4274349628"
            },
            "miss_distance": {
                "astronomical": "0.0399556368",
                "lunar": "15.5427427152",
                "kilometers": "5977278.159773616",
                "miles": "3714108.4229872608"
            },
            "orbiting_body": "Earth"
        },
        {
            "close_approach_date": "2029-10-22",
            "close_approach_date_full": "2029-Oct-22 06:51",
            "epoch_date_close_approach": 1887346260000,
            "relative_velocity": {
                "kilometers_per_second": "19.0077048281",
                "kilometers_per_hour": "68427.7373813069",
                "miles_per_hour": "42518.3349300682"
            },
            "miss_distance": {
                "astronomical": "0.4256885567",
                "lunar": "165.5928485563",
                "kilometers": "63682101.365694229",
                "miles": "39570222.8930252002"
            },
            "orbiting_body": "Earth"
        },
        {
            "close_approach_date": "2088-07-10",
            "close_approach_date_full": "2088-Jul-10 15:34",
            "epoch_date_close_approach": 3740312040000,
            "relative_velocity": {
                "kilometers_per_second": "18.712383231",
                "kilometers_per_hour": "67364.5796314754",
                "miles_per_hour": "41857.7300493465"
            },
            "miss_distance": {
                "astronomical": "0.4127037524",
                "lunar": "160.5417596836",
                "kilometers": "61739602.300047388",
                "miles": "38363209.9435664344"
            },
            "orbiting_body": "Earth"
        },
        {
            "close_approach_date": "2199-07-12",
            "close_approach_date_full": "2199-Jul-12 04:33",
            "epoch_date_close_approach": 7243187580000,
            "relative_velocity": {
                "kilometers_per_second": "19.6849963488",
                "kilometers_per_hour": "70865.9868558218",
                "miles_per_hour": "44033.3683327189"
            },
            "miss_distance": {
                "astronomical": "0.4481049424",
                "lunar": "174.3128225936",
                "kilometers": "67035544.919512688",
                "miles": "41653956.0933755744"
            },
            "orbiting_body": "Earth"
        }
    ],
    "orbital_data": {
        "orbit_id": "5",
        "orbit_determination_date": "2017-04-06 08:24:03",
        "first_observation_date": "2016-09-06",
        "last_observation_date": "2016-10-10",
        "data_arc_in_days": 34,
        "observations_used": 19,
        "orbit_uncertainty": "7",
        "minimum_orbit_intersection": ".0407852",
        "jupiter_tisserand_invariant": "3.469",
        "epoch_osculation": "2459000.5",
        "eccentricity": ".5263476041956997",
        "semi_major_axis": "2.201882862748346",
        "inclination": "2.01161202682641",
        "ascending_node_longitude": "16.81114253150699",
        "orbital_period": "1193.410195871726",
        "perihelion_distance": "1.042927093221185",
        "perihelion_argument": "323.4229330219414",
        "aphelion_distance": "3.360838632275505",
        "perihelion_time": "2458826.268621534147",
        "mean_anomaly": "52.55803617622924",
        "mean_motion": ".3016565479709499",
        "equinox": "J2000",
        "orbit_class": {
            "orbit_class_type": "AMO",
            "orbit_class_description": "Near-Earth asteroid orbits similar to that of 1221 Amor",
            "orbit_class_range": "1.017 AU < q (perihelion) < 1.3 AU"
        }
    },
    "is_sentry_object": false
}